{
  "type": "FeatureCollection",
  "features": [
    {
      "type": "Feature",
      "properties": {},
      "geometry": {
        "coordinates": [
          [
            72.82058976225022,
            22.601495895480184
          ],
          [
            72.82074346023487,
            22.601581031858302
          ],
          [
            72.8203233524107,
            22.602115497917964
          ],
          [
            72.82048729692866,
            22.602290499627784
          ],
          [
            72.82020551729082,
            22.602602664287318
          ],
          [
            72.82052828305694,
            22.602876990221844
          ],
          [
            72.8203584629129,
            22.602997209483448
          ]
        ],
        "type": "LineString"
      }
    }
  ]
}